[{"OBJECT_NAME":"TOMORROW-S4","OBJECT_ID":"2024-247K","EPOCH":"2026-03-09T12:47:35.836224","MEAN_MOTION":15.27717249,"ECCENTRICITY":0.00044343,"INCLINATION":44.9818,"RA_OF_ASC_NODE":117.9996,"ARG_OF_PERICENTER":210.4078,"MEAN_ANOMALY":149.6548,"EPHEMERIS_TYPE":0,"CLASSIFICATION_TYPE":"U","NORAD_CAT_ID":62386,"ELEMENT_SET_NO":999,"REV_AT_EPOCH":6770,"BSTAR":0.00046927249,"MEAN_MOTION_DOT":0.00012677,"MEAN_MOTION_DDOT":0},{"OBJECT_NAME":"STARLINK-36075","OBJECT_ID":"2025-283AD","EPOCH":"2026-03-09T06:18:34.925472","MEAN_MOTION":15.30145175,"ECCENTRICITY":0.00011567,"INCLINATION":53.1623,"RA_OF_ASC_NODE":26.5141,"ARG_OF_PERICENTER":128.6218,"MEAN_ANOMALY":231.4886,"EPHEMERIS_TYPE":0,"CLASSIFICATION_TYPE":"U","NORAD_CAT_ID":66905,"ELEMENT_SET_NO":999,"REV_AT_EPOCH":1577,"BSTAR":0.00033324812,"MEAN_MOTION_DOT":9.507e-5,"MEAN_MOTION_DDOT":0}]
